TIBA-1                  
1 44800U 19080A   23018.87753095  .00000170  00000+0  00000+0 0  9998
2 44800   0.0505  12.5986 0002004 284.2564 172.5494  1.00271258 11578
INMARSAT GX5            
1 44801U 19080B   23019.23127869  .00000088  00000+0  00000+0 0  9992
2 44801   0.0382 349.2304 0001997 336.0277 247.3458  1.00273304 11602
JCSAT-18 (KACIFIC 1)    
1 44868U 19091A   23019.46343899 -.00000189  00000+0  00000+0 0  9998
2 44868   0.0179 103.2008 0000089 219.7493 112.4581  1.00269637 11610
ELEKTRO-L 3             
1 44903U 19095A   23019.21090854 -.00000083  00000+0  00000+0 0  9998
2 44903   0.0534 143.7697 0000848 124.6395   1.8280  1.00271144 11215
SHIJIAN-20 (SJ-20)      
1 44910U 19097A   23018.80554428  .00000169  00000+0  00000+0 0  9998
2 44910   1.7154  89.8368 0002867 191.9526 160.1175  1.00270465 11206
TJS-5                   
1 44978U 20002A   23018.78660419 -.00000327  00000+0  00000+0 0  9992
2 44978   0.0954  73.2314 0004766 145.0971 290.2599  1.00267909 11217
GSAT-30                 
1 45026U 20005A   23019.15431229 -.00000151  00000+0  00000+0 0  9992
2 45026   0.0169  66.8960 0000245 168.5568  21.3509  1.00272790 11044
EUTELSAT KONNECT        
1 45027U 20005B   23018.87195240  .00000064  00000+0  00000+0 0  9993
2 45027   0.0476  92.4978 0000365 270.7722  75.8315  1.00270072 11838
JCSAT-17                
1 45245U 20013A   23018.81299367 -.00000295  00000+0  00000+0 0  9990
2 45245   5.9589 346.3212 0003890 319.5119 240.7808  1.00270125 10747
GEO-KOMPSAT-2B          
1 45246U 20013B   23018.96777911 -.00000329  00000+0  00000+0 0  9991
2 45246   0.0544 238.3836 0001788  44.8699 311.4909  1.00270536 10768
BEIDOU-3 G2             
1 45344U 20017A   23018.90432188 -.00000127  00000+0  00000+0 0  9998
2 45344   1.9891   3.6199 0000562 265.9905 254.0193  1.00270521 10774
AEHF-6 (USA 298)        
1 45465U 20022B   23018.76048788 -.00000276  00000+0  00000+0 0  9996
2 45465   5.4429 301.2422 0051183   3.4238 224.6373  1.00265402 10527
BEIDOU-3 G3             
1 45807U 20040A   23019.03594208 -.00000338  00000+0  00000+0 0  9999
2 45807   0.9747 313.2292 0007972 339.6980 308.7404  1.00273808  9596
APSTAR 6D               
1 45863U 20045A   23019.04047466 -.00000304  00000+0  00000+0 0  9999
2 45863   0.0230  83.1390 0001546 305.5147 238.0511  1.00265939  9361
KOREASAT 116            
1 45920U 20048A   23018.96533850 -.00000347  00000+0  00000+0 0  9990
2 45920   0.0147  35.7561 0000719 269.8105 276.2475  1.00271940  9140
EXPRESS 103             
1 45985U 20053A   23018.78660419 -.00000265  00000+0  00000+0 0  9998
2 45985   0.0476 239.2524 0000565 291.2117 327.1255  1.00271781  9164
EXPRESS 80              
1 45986U 20053B   23018.45123887 -.00000119  00000+0  00000+0 0  9994
2 45986   0.0408 226.1587 0000314 213.9316 279.9039  1.00271691  9151
BSAT-4B                 
1 46112U 20056A   23018.89485377 -.00000336  00000+0  00000+0 0  9993
2 46112   0.0595 124.3126 0000592  30.6648  35.0334  1.00271917  8900
MEV-2                   
1 46113U 20056B   23018.36823120  .00000006  00000+0  00000+0 0  9991
2 46113   0.0150 301.7508 0001420  46.5136 260.8049  1.00268859  9589
GALAXY 30 (G-30)        
1 46114U 20056C   23019.15540552  .00000051  00000+0  00000+0 0  9995
2 46114   0.0215  51.8516 0001799 264.0529  93.3307  1.00270443  8910
GAOFEN 13               
1 46610U 20071A   23018.89400513 -.00000348  00000+0  00000+0 0  9995
2 46610   0.1048 151.1975 0003722   2.6711  43.8688  1.00273177  8410
TIANTONG-1 2            
1 46916U 20082A   23019.03881854 -.00000335  00000+0  00000+0 0  9990
2 46916   3.6070 294.1309 0001997  41.8510 281.0545  1.00266672  8167
LUCAS (JDRS-1)          
1 47202U 20089A   23019.10349491 -.00000220  00000+0  00000+0 0  9993
2 47202   0.0173  92.4438 0003081 210.2271 303.5665  1.00267952  7912
SXM-7                   
1 47240U 20096A   23019.24179459 -.00000191  00000+0  00000+0 0  9990
2 47240   0.0221  61.6878 0001357 114.6884 303.7942  1.00269624  7856
CMS-01                  
1 47256U 20099A   23018.84687664 -.00000149  00000+0  00000+0 0  9990
2 47256   0.0385  98.2717 0007821 177.3730 230.2057  1.00270854  7702
TURKSAT 5A              
1 47306U 21001A   23018.80493413  .00000169  00000+0  00000+0 0  9994
2 47306   0.0242  88.2830 0000449 344.5674   5.7669  1.00271695  7482
TIANTONG-1 3            
1 47321U 21003A   23018.95842001 -.00000134  00000+0  00000+0 0  9993
2 47321   3.9617 308.3221 0004238 345.1912 251.1667  1.00272360  7484
TJS-6                   
1 47613U 21010A   23019.20739593  .00000056  00000+0  00000+0 0  9997
2 47613   0.1378 307.0746 0002309  52.1172  12.3469  1.00267427  7327
SBIRS GEO-5 (USA 315)   
1 48618U 21042A   23018.58771253  .00000141  00000+0  00000+0 0  9992
2 48618   6.9889 325.7425 0002031 325.2181  59.2440  1.00271669  6276
FENGYUN 4B              
1 48808U 21047A   23019.52792809 -.00000311  00000+0  00000+0 0  9993
2 48808   0.0627  58.6395 0004172   8.5799  14.5130  1.00268924  6094
SXM-8                   
1 48838U 21049A   23019.01299147 -.00000190  00000+0  00000+0 0  9994
2 48838   0.0234 108.8921 0001576 243.1203  45.5936  1.00270350  6146
TIANLIAN 1-05           
1 49011U 21063A   23018.87387002  .00000125  00000+0  00000+0 0  9992
2 49011   1.6255 280.9644 0001999   9.2727 159.1198  1.00272202  5582
STAR ONE D2             
1 49055U 21069A   23017.86938851 -.00000246  00000+0  00000+0 0  9993
2 49055   0.0067  64.7585 0001648 189.1346 106.0811  1.00271623  5435
EUTELSAT QUANTUM        
1 49056U 21069B   23018.87953574  .00000140  00000+0  00000+0 0  9997
2 49056   0.0292 322.4170 0002255 347.0373 172.9041  1.00273372  5441
CHINASAT 2E (ZX 2E)     
1 49062U 21071A   23017.72688432 -.00000272  00000+0  00000+0 0  9995
2 49062   0.0215 217.3681 0002279 103.2126 156.0117  1.00269785  5558
TJS-7                   
1 49115U 21077A   23019.60089365 -.00000113  00000+0  00000+0 0  9993
2 49115   0.2538 107.8468 0001873 120.5156   7.1850  1.00273244  5338
CHINASAT 9B             
1 49125U 21080A   23018.78660419 -.00000298  00000+0  00000+0 0  9995
2 49125   0.0404 100.9420 0002004 174.6455 226.9276  1.00273489  5154
SHIJIAN-21 (SJ-21)      
1 49330U 21094A   23018.88985102 -.00000348  00000+0  00000+0 0  9994
2 49330   8.8471  48.7089 0094620  20.6467 138.4807  1.00125342  4778
SES-17                  
1 49332U 21095A   23018.78540919 -.00000257  00000+0  00000+0 0  9998
2 49332   0.0138  71.3436 0000727 202.6146  59.6044  1.00271219  5350
SYRACUSE 4A             
1 49333U 21095B   23019.23816472  .00000149  00000+0  00000+0 0  9999
2 49333   0.0177  48.1556 0001581 249.6276 311.8204  1.00267574  5500
QZS-1R                  
1 49336U 21096A   23018.53990237 -.00000270  00000+0  00000+0 0  9993
2 49336  34.8933  98.4649 0758394 271.7597  74.6335  1.00249602  4524
CHINASAT 1D (ZX 1D)     
1 49505U 21114A   23019.25507472 -.00000321  00000+0  00000+0 0  9994
2 49505   0.9296 276.2813 0000632 290.7253 133.3744  1.00273288  4335
STPSAT-6                
1 49817U 21118A   23018.65434557 -.00000030  00000+0  00000+0 0  9997
2 49817   0.0339 255.4047 0000415 102.1727 244.1223  1.00271395  4070
LDPE-1                  
1 49818U 21118B   23018.86018514 -.00000188  00000+0  00000+0 0  9996
2 49818   0.9104  96.0975 0003648 183.8658  95.9721  1.01184504  4115
EXPRESS AMU-7           
1 50001U 21123A   23018.27111215 -.00000225  00000+0  00000+0 0  9997
2 50001   0.0555 241.6958 0000220 197.7505 280.5474  1.00273241  4055
EXPRESS AMU-3           
1 50002U 21123B   23018.38743522 -.00000305  00000+0  00000+0 0  9991
2 50002   0.0523 237.8001 0000257 300.2481 181.9427  1.00272132  4028
TIANLIAN 2-02           
1 50005U 21124A   23019.51407608  .00000001  00000+0  00000+0 0  9995
2 50005   1.9985 279.9260 0002626  11.5310 183.2413  1.00270989  4132
TURKSAT 5B              
1 50212U 21126A   23019.09399392  .00000160  00000+0  00000+0 0  9996
2 50212   0.0673 343.8621 0005093 333.9811 236.2099  1.00269980  3807
INMARSAT 6-F1           
1 50319U 21128A   23018.78418979 -.00000157  00000+0  00000+0 0  9991
2 50319   0.0530  87.8184 0001097 302.8975  93.3057  1.00270703  3779
SHIYAN 12 01 (SY-12 01) 
1 50321U 21129A   23018.89233135 -.00000302  00000+0  00000+0 0  9998
2 50321   0.4607 107.2604 0000950 297.0778 133.9996  1.00396005  4013
SHIYAN 12 02 (SY-12 02) 
1 50322U 21129B   23018.90370230 -.00000319  00000+0  00000+0 0  9997
2 50322   0.4606 107.3056 0003366 321.6226 148.0485  1.00128513  4018
TJS-9                   
1 50574U 21135A   23019.21646666 -.00000286  00000+0  00000+0 0  9990
2 50574   0.0185  55.1770 0002805 131.0944 147.2212  1.00268939  3975
USA 324                 
1 51280U 22006A   23019.47916667 -.00000348  00000+0  00000+0 0  9991
2 51280   0.3323  91.9937 0000212  75.0215 234.9012  1.00608442  3630
USA 325                 
1 51281U 22006B   23019.03071219 -.00000202  00000+0  00000+0 0  9998
2 51281   0.2826  91.3904 0005936 259.0917 222.9665  1.00458622  3620
GOES 18                 
1 51850U 22021A   23017.38313286  .00000117  00000+0  00000+0 0  9990
2 51850   0.0281 187.2585 0000266 122.2525 168.0062  1.00271354  3280
CHINASAT 6D             
1 52255U 22038A   23019.51788735 -.00000342  00000+0  00000+0 0  9991
2 52255   0.0158  62.8168 0000972 244.0586 123.2819  1.00271379  2966
NILESAT 301             
1 52817U 22061A   23019.18799469 -.00000045  00000+0  00000+0 0  9990
2 52817   0.0434 348.4942 0005458 334.7960 215.6904  1.00270211  2254
CMS-02 (GSAT 24)        
1 52903U 22067A   23019.17383700 -.00000150  00000+0  00000+0 0  9995
2 52903   0.1045 274.3574 0004191 172.9524 176.5406  1.00269889  2125
MEASAT 3D               
1 52904U 22067B   23019.16091008 -.00000228  00000+0  00000+0 0  9998
2 52904   0.0481 307.3569 0003094   0.0524 320.2981  1.00272037  2150
SES-22                  
1 52933U 22071A   23019.21327918  .00000102  00000+0  00000+0 0  9993
2 52933   0.0398 273.0137 0002342  21.8746 125.2075  1.00272150  2086
